AMC-1 (GE-1)            
1 24315U 96054A   23031.53561815  .00000063  00000+0  00000+0 0  9999
2 24315   6.1595  71.1956 0003616 226.1276 255.0609  1.00270505 33962
AMC-3 (GE-3)            
1 24936U 97050A   23031.55056657 -.00000262  00000+0  00000+0 0  9992
2 24936   5.1031  77.3257 0003350 235.6597 303.6944  1.00271428 40070
ASTRA 1G                
1 25071U 97076A   23031.28192427  .00000112  00000+0  00000+0 0  9990
2 25071   6.7661  66.5165 0004077 238.0954 306.4927  1.00270331 92145
ASTRA 2A                
1 25462U 98050A   23031.20535549  .00000068  00000+0  00000+0 0  9995
2 25462   3.9744  83.1321 0003586 223.2228 314.8935  1.00273125 33975
AMC-4 (GE-4)            
1 25954U 99060A   23031.53801483  .00000089  00000+0  00000+0 0  9995
2 25954   2.0453  87.9058 0003204 222.8656 238.4788  1.00271817 31199
NSS-11 (AAP-1)          
1 26554U 00059A   23031.09800630  .00000028  00000+0  00000+0 0  9999
2 26554   0.0573 277.2860 0002715  38.0203  26.0025  1.00271219 28921
AMC-6 (GE-6)            
1 26580U 00067A   23031.60383038  .00000108  00000+0  00000+0 0  9991
2 26580   0.0465 279.8760 0002711  38.6446 250.3943  1.00274276 81542
ASTRA 2D                
1 26638U 00081A   23024.89010861  .00000122  00000+0  00000+0 0  9991
2 26638   7.7607  58.7758 0001863 244.5863 165.1138  1.00282675 40475
AMC-8 (GE-8)            
1 26639U 00081B   23031.48536721 -.00000240  00000+0  00000+0 0  9995
2 26639   2.9365  87.3607 0005459 231.0491 307.4012  0.99152037 80963
ASTRA 2C                
1 26853U 01025A   23031.49318042 -.00000260  00000+0  00000+0 0  9999
2 26853   5.1271  77.1394 0003142 231.4127 286.8802  1.00268207 32682
NSS-7                   
1 27414U 02019A   23031.34581616 -.00000161  00000+0  00000+0 0  9990
2 27414   6.4312  69.4084 0002788 254.2161 271.1493  1.00272069 76202
NSS-6                   
1 27603U 02057A   23031.53112878  .00000108  00000+0  00000+0 0  9993
2 27603   2.1885  89.0447 0003713 218.8740 204.2228  1.00271453 73687
AMC-11 (GE-11)          
1 28252U 04017A   23031.46809663 -.00000046  00000+0  00000+0 0  9991
2 28252   0.0610 280.1870 0003008  18.1348 249.4850  1.00273218 68516
AMC-15                  
1 28446U 04041A   23031.59530645 -.00000085  00000+0  00000+0 0  9991
2 28446   0.0362 306.1470 0002792   0.4273 293.1962  1.00271523 66953
NSS-10 (AMC-12)         
1 28526U 05003A   23031.34232956 -.00000251  00000+0  00000+0 0  9991
2 28526   3.3500  84.9235 0003236 215.4375 275.6957  1.00270904 40792
ASTRA 1KR               
1 29055U 06012A   23031.15396728  .00000123  00000+0  00000+0 0  9994
2 29055   0.0750 271.4115 0004756   0.3334 292.9628  1.00274990 33366
AMC-18                  
1 29644U 06054B   23031.54838747 -.00000212  00000+0  00000+0 0  9999
2 29644   0.0256 322.4314 0002323 353.4304 289.0350  1.00273891 59171
ASTRA 1L                
1 31306U 07016A   23031.28183712  .00000123  00000+0  00000+0 0  9992
2 31306   0.0881 295.0352 0005706   0.5580 315.2710  1.00270522 32647
ASTRA 4A (SIRIUS 4)     
1 32299U 07057A   23031.35069740  .00000035  00000+0  00000+0 0  9993
2 32299   0.0181 348.1403 0002764 313.6117 319.5795  1.00272427 39300
AMC-21                  
1 33275U 08038B   23031.45354574  .00000040  00000+0  00000+0 0  9997
2 33275   0.0571 279.4799 0002537  29.4334 219.8430  1.00271259 53130
ASTRA 1M                
1 33436U 08057A   23031.35348668  .00000123  00000+0  00000+0 0  9995
2 33436   0.0253  80.6125 0000266 176.9470  19.1981  1.00272899 33363
CIEL-2                  
1 33453U 08063A   23031.48906199  .00000062  00000+0  00000+0 0  9996
2 33453   0.0127 151.2354 0003068 150.9169 235.4691  1.00270951 51774
NSS-9                   
1 33749U 09008A   23031.52964698  .00000075  00000+0  00000+0 0  9991
2 33749   0.0167  55.5415 0002424 252.1581 196.4844  1.00272356 51203
SES-7 (PROTOSTAR 2)     
1 34941U 09027A   23031.58521485 -.00000342  00000+0  00000+0 0  9994
2 34941   0.0203  75.2813 0002645 211.9240 162.2269  1.00270445 50264
NSS-12                  
1 36032U 09058A   23031.50454351  .00000075  00000+0  00000+0 0  9992
2 36032   0.0601 274.4512 0003000  32.1096  62.4985  1.00271446 48553
SES-1                   
1 36516U 10016A   23031.54481369 -.00000111  00000+0  00000+0 0  9990
2 36516   0.0563 276.8140 0003041  41.7916 266.9849  1.00271615 46682
ASTRA 3B                
1 36581U 10021A   23031.49774463  .00000140  00000+0  00000+0 0  9993
2 36581   0.0556  50.8433 0003658 258.4070  23.8687  1.00269207 46294
SES-3                   
1 37748U 11035A   23031.55989828 -.00000098  00000+0  00000+0 0  9998
2 37748   0.0322 319.4286 0003022 332.6158 297.0038  1.00271867 42238
ASTRA 1N                
1 37775U 11041A   23030.92326674  .00000123  00000+0  00000+0 0  9997
2 37775   0.0558  42.7001 0004087 313.5632 125.1471  1.00272704 32161
SES-2                   
1 37809U 11049A   23031.54760296 -.00000192  00000+0  00000+0 0  9991
2 37809   0.0391 287.8958 0003251  29.7921 282.9283  1.00272184 41598
QUETZSAT 1              
1 37826U 11054A   23031.54960778 -.00000238  00000+0  00000+0 0  9994
2 37826   0.0272 318.6806 0002805 349.2855 303.3777  1.00271380 37521
SES-4                   
1 38087U 12007A   23031.41711707 -.00000165  00000+0  00000+0 0  9994
2 38087   0.0230  57.3265 0002428 265.0409 296.1431  1.00269819 39872
SES-5                   
1 38652U 12036A   23031.27904782  .00000037  00000+0  00000+0 0  9992
2 38652   0.0580 285.0480 0001998  20.8694 289.7276  1.00271728 32129
ASTRA 2F                
1 38778U 12051A   23031.49879062  .00000153  00000+0  00000+0 0  9993
2 38778   0.0958 254.9787 0003612  11.6475  71.5510  1.00269440 28763
SES-6                   
1 39172U 13026A   23031.48510572 -.00000258  00000+0  00000+0 0  9999
2 39172   0.0606 282.4147 0002614  23.9484 318.1887  1.00271762 35366
O3B FM5                 
1 39188U 13031A   23031.35247043 -.00000024  00000+0  00000+0 0  9999
2 39188   0.0658 359.8888 0002904 315.6405  44.4417  5.00115448175362
O3B FM4                 
1 39189U 13031B   23031.40835812 -.00000024  00000+0  00000+0 0  9993
2 39189   0.0379 359.0698 0002847 315.7838  45.1175  5.00115975175387
O3B FM2                 
1 39190U 13031C   23031.49993796 -.00000024  00000+0  00000+0 0  9990
2 39190   0.0331 356.9700 0002814 316.6727  46.3282  5.00115215175433
O3B PFM                 
1 39191U 13031D   23029.92696803 -.00000023  00000+0  00000+0 0  9994
2 39191   0.0568   1.3454 0002730 307.3382  51.2863  5.00115912174921
ASTRA 2E                
1 39285U 13056A   23031.49887778  .00000154  00000+0  00000+0 0  9997
2 39285   0.0684 329.3679 0002388 345.4656  23.7252  1.00275987 34232
SES-8                   
1 39460U 13071A   23031.52271656 -.00000266  00000+0  00000+0 0  9990
2 39460   0.0564 255.5505 0001328  88.5215  69.5699  1.00273102 33511
ASTRA 5B                
1 39617U 14011B   23031.49948793  .00000158  00000+0  00000+0 0  9997
2 39617   0.0367 352.7854 0003806 315.1275  33.8148  1.00273708 32302
O3B FM3                 
1 40079U 14038A   23031.18103059 -.00000024  00000+0  00000+0 0  9997
2 40079   0.0457 358.7545 0003915 273.4707  87.7242  5.00116725151366
O3B FM7                 
1 40080U 14038B   23030.32767199 -.00000023  00000+0  00000+0 0  9994
2 40080   0.0431 353.9103 0003345 348.2072  17.8650  5.00115646156150
O3B FM6                 
1 40081U 14038C   23031.35354530 -.00000024  00000+0  00000+0 0  9991
2 40081   0.0449 359.6363 0002811 311.1799  49.1537  5.00115374156153
O3B FM8                 
1 40082U 14038D   23031.20748005 -.00000024  00000+0  00000+0 0  9990
2 40082   0.0419   0.9199 0002633 308.6930  50.3581  5.00115790156261
O3B FM10                
1 40348U 14083A   23031.43357246 -.00000024  00000+0  00000+0 0  9993
2 40348   0.0528   4.7009 0002715 306.1161  49.1538  5.00115249148223
O3B FM11                
1 40349U 14083B   23031.44696805 -.00000024  00000+0  00000+0 0  9992
2 40349   0.0539 359.6985 0003186 321.3381  38.9347  5.00115470148249
O3B FM12                
1 40350U 14083C   23031.27431533 -.00000024  00000+0  00000+0 0  9990
2 40350   0.0531   0.0708 0002934 310.9082  48.9899  5.00115377148244
O3B FM9                 
1 40351U 14083D   23031.50086820 -.00000024  00000+0  00000+0 0  9992
2 40351   0.0546 358.5915 0002751 313.3375  48.0418  5.00116169148395
ASTRA 2G                
1 40364U 14089A   23031.49879062  .00000153  00000+0  00000+0 0  9990
2 40364   0.0572 310.0281 0002749  63.7170 324.4351  1.00274296 29604
SES-9                   
1 41380U 16013A   23031.41854828 -.00000342  00000+0  00000+0 0  9994
2 41380   0.0425 274.5303 0000855  98.7512  16.0462  1.00271354 25079
SES-10                  
1 42432U 17017A   23031.55161257 -.00000269  00000+0  00000+0 0  9998
2 42432   0.0175  72.5154 0002908 229.5215 320.1239  1.00269081 21380
SES-15                  
1 42709U 17026A   23031.53923514  .00000063  00000+0  00000+0 0  9996
2 42709   0.0180   9.8669 0000506 283.2351 262.3331  1.00270008 21782
SES-11 (ECHOSTAR 105)   
1 42967U 17063A   23031.55874177 -.00000086  00000+0  00000+0 0  9991
2 42967   0.0593 269.2300 0002596  26.5029 290.9468  1.00271581 19367
SES-14                  
1 43175U 18012B   23031.48371108 -.00000275  00000+0  00000+0 0  9996
2 43175   0.0129 355.0772 0000883 299.9229 322.0453  1.00270232 18694
O3B FM15                
1 43231U 18024A   23031.36690834 -.00000024  00000+0  00000+0 0  9991
2 43231   0.0527   8.4804 0003060 301.3186  50.1683  5.00116329 89359
O3B FM16                
1 43232U 18024B   23031.42034846 -.00000024  00000+0  00000+0 0  9994
2 43232   0.0538  12.8011 0003066 297.7612  49.4052  5.00116107 89275
O3B FM14                
1 43233U 18024C   23031.26025229 -.00000024  00000+0  00000+0 0  9992
2 43233   0.0536  14.4489 0003051 299.2022  46.3179  5.00115559 89273
O3B FM13                
1 43234U 18024D   23031.31380832 -.00000024  00000+0  00000+0 0  9993
2 43234   0.0671 357.8462 0003841 308.7350  53.3777  5.00115096 89397
SES-12                  
1 43488U 18049A   23031.57827003 -.00000266  00000+0  00000+0 0  9993
2 43488   0.0105  45.9632 0002644 242.6232 145.0944  1.00271196 17058
O3B FM20                
1 44112U 19020A   23031.48682600 -.00000025  00000+0  00000+0 0  9993
2 44112   0.0521   4.7388 0003419 307.4667  47.7597  5.00115594 69893
O3B FM19                
1 44113U 19020B   23031.51370993 -.00000025  00000+0  00000+0 0  9997
2 44113   0.0729   8.6789 0002987 330.2072  21.0958  5.00115108 69779
O3B FM17                
1 44114U 19020C   23031.39419796 -.00000024  00000+0  00000+0 0  9998
2 44114   0.0385  23.3720 0003162 285.5685  51.0255  5.00115796 69850
O3B FM18                
1 44115U 19020D   23031.34067401 -.00000024  00000+0  00000+0 0  9996
2 44115   0.0525   4.5348 0002948 304.6395  50.7938  5.00115921 69973
SES-17                  
1 49332U 21095A   23031.55152539 -.00000269  00000+0  00000+0 0  9998
2 49332   0.0135  85.8914 0001210 216.9762 319.0678  1.00269916  5489
SES-22                  
1 52933U 22071A   23031.53801483  .00000091  00000+0  00000+0 0  9993
2 52933   0.0460 262.9245 0002816  42.2548 243.9662  1.00273298  2181
SES-20                  
1 53960U 22123A   23031.55989801 -.00000097  00000+0  00000+0 0  9992
2 53960   0.0537 120.2422 0001307 189.3159 279.3692  1.00272348  1185
SES-21                  
1 53961U 22123B   23031.53879931  .00000073  00000+0  00000+0 0  9996
2 53961   0.0194  55.6392 0001064 261.7179 236.0690  1.00271728  1201
O3B MPOWER-A F1         
1 54755U 22174A   23031.48232846  .00000029  00000+0  00000+0 0  9997
2 54755   6.5064 201.1579 1301114 293.8191  53.0957  6.40996766  3159
O3B MPOWER-A F2         
1 54756U 22174B   23031.54470672  .00000043  00000+0 -22605-2 0  9991
2 54756   9.6295 194.7464 1871208 309.7148  35.2235  7.26305383  3318
